"","location_name","street_address","city","region","postal_code","chg_nvisits_yoy","start","placekey","address","visit_drop"
"1","Goodwill Industries","7311 Ritchie Hwy","Glen Burnie","MD","21061",-0.885416686534882,2024-05-01,"222-222@63r-b8w-dqf","7311 Ritchie Hwy Glen Burnie MD 21061",-88.54%
"2","Courtyard Baltimore Bwi Airport","1671 W Nursery Rd","Linthicum Heights","MD","21090",-0.885416686534882,2024-02-01,"222-222@63r-bjr-pd9","1671 W Nursery Rd Linthicum Heights MD 21090",-88.54%
"3","Hyatt Place","940 International Dr","Linthicum Heights","MD","21090",-0.885416686534882,2024-03-01,"222-222@63r-bjs-5s5","940 International Dr Linthicum Heights MD 21090",-88.54%
"4","Shell Oil","6616 Ritchie Hwy","Glen Burnie","MD","21061",-0.885416686534882,2024-02-01,"222-223@63r-b94-m49","6616 Ritchie Hwy Glen Burnie MD 21061",-88.54%
"5","Planet Fitness","597 E Ordnance Rd","Glen Burnie","MD","21060",-0.885416686534882,2024-04-01,"223-222@63r-b7p-w6k","597 E Ordnance Rd Glen Burnie MD 21060",-88.54%
"6","Subway","6938 Aviation Blvd Ste A","Glen Burnie","MD","21061",-0.885416686534882,2024-01-01,"224-222@63r-b8z-75z","6938 Aviation Blvd Ste A Glen Burnie MD 21061",-88.54%
"7","CrossFit","7609 Energy Pkwy Ste 701","Curtis Bay","MD","21226",-0.885416686534882,2024-03-01,"225-223@63r-b88-7nq","7609 Energy Pkwy Ste 701 Curtis Bay MD 21226",-88.54%
"8","Gold's Gym","1131 Merritt Blvd","Dundalk","MD","21222",-0.885416686534882,2024-01-01,"225-223@63r-bqs-b6k","1131 Merritt Blvd Dundalk MD 21222",-88.54%
"9","PetSmart","24 Mountain Rd","Glen Burnie","MD","21060",-0.885416686534882,2024-02-01,"zzw-224@63r-52s-fs5","24 Mountain Rd Glen Burnie MD 21060",-88.54%
"10","Starbucks","1700 W Nursery Rd","Linthicum Heights","MD","21090",-0.885416686534882,2024-05-01,"zzy-223@63r-bjr-p35","1700 W Nursery Rd Linthicum Heights MD 21090",-88.54%
"11","Overlook Park","Hampton Rd","Linthicum","MD","21090",-0.885416686534882,2024-03-01,"zzz-222@63r-b8m-wrk","Hampton Rd Linthicum MD 21090",-88.54%
"12","Burger King","7988 Crain Hwy S","Glen Burnie","MD","21061",-0.883720934391022,2024-05-01,"222-222@63r-53q-rp9","7988 Crain Hwy S Glen Burnie MD 21061",-88.37%
"13","Advance Auto Parts","1401 Merritt Blvd Ste E","Baltimore","MD","21222",-0.867999970912933,2024-01-01,"zzy-222@63r-b9j-n3q","1401 Merritt Blvd Ste E Baltimore MD 21222",-86.80%
"14","Chesapeake","1743 W Nursery Rd","Linthicum Heights","MD","21090",-0.845272183418274,2024-02-01,"222-225@63r-bjr-mkz","1743 W Nursery Rd Linthicum Heights MD 21090",-84.53%
"15","Biblical Word Of God Revivals Inc Gene L Bullard","Route 2 Box 750","Glen Burnie","MD","21060",-0.842465758323669,2024-02-01,"zzy-222@63r-b7p-vxq","Route 2 Box 750 Glen Burnie MD 21060",-84.25%
"16","Rim Doctor","219 Thelma Ave","Glen Burnie","MD","21061",-0.830645143985748,2024-03-01,"zzw-222@63r-b92-3h5","219 Thelma Ave Glen Burnie MD 21061",-83.06%
"17","Shell Oil","463 N Camp Meade Rd","Linthicum Heights","MD","21090",-0.826403319835663,2024-02-01,"223-222@63r-b8h-jqf","463 N Camp Meade Rd Linthicum Heights MD 21090",-82.64%
"18","Economy Propane","7635 Gambrills Cove Rd","Baltimore","MD","21226",-0.80961537361145,2024-01-01,"222-222@63r-b87-mtv","7635 Gambrills Cove Rd Baltimore MD 21226",-80.96%
"19","Crazy Crab","805 Aquahart Rd","Glen Burnie","MD","21061",-0.80212014913559,2024-01-01,"zzy-225@63r-b8x-mzf","805 Aquahart Rd Glen Burnie MD 21061",-80.21%
"20","Holabird Pizzaria","6902 Holabird Ave","Dundalk","MD","21222",-0.797101438045502,2024-07-01,"22j-222@63r-b9n-4gk","6902 Holabird Ave Dundalk MD 21222",-79.71%
"21","Holiday Inn","815 Elkridge Landing Rd","Linthicum Heights","MD","21090",-0.794411182403564,2024-01-01,"222-222@63r-bjr-nqz","815 Elkridge Landing Rd Linthicum Heights MD 21090",-79.44%
"22","Shell Oil","724 Nursery Rd","Linthicum Heights","MD","21090",-0.794380605220795,2024-04-01,"224-222@63r-b8f-yn5","724 Nursery Rd Linthicum Heights MD 21090",-79.44%
"23","Miracle-Ear","7678 Quarterfield Rd Ste 202","Glen Burnie","MD","21061",-0.792307674884796,2024-03-01,"zzw-222@63r-b8z-ygk","7678 Quarterfield Rd Ste 202 Glen Burnie MD 21061",-79.23%
"24","Meehan's Marina","2533 School House Ln","Sparrows Point","MD","21219",-0.782608687877655,2024-04-01,"zzw-222@63r-8fd-ghq","2533 School House Ln Sparrows Point MD 21219",-78.26%
"25","In A Minute Bail Bonds","2 Crain Hwy N","Glen Burnie","MD","21061",-0.778523504734039,2024-01-01,"22k-223@63r-b8v-nt9","2 Crain Hwy N Glen Burnie MD 21061",-77.85%
"26","Shell Oil","1521 Merritt Blvd","Dundalk","MD","21222",-0.768545985221863,2024-04-01,"228-222@63r-b9j-6c5","1521 Merritt Blvd Dundalk MD 21222",-76.85%
"27","Inside Out Fitness","6501 N Point Rd","Sparrows Point","MD","21219",-0.767195761203766,2024-07-01,"222-222@63r-8fk-pd9","6501 N Point Rd Sparrows Point MD 21219",-76.72%
"28","Dejavu Salon & Spa","2107 N North Point Blvd Ste","Dundalk","MD","21222",-0.762222230434418,2024-01-01,"zzy-222@63r-bqs-dd9","2107 N North Point Blvd Ste Dundalk MD 21222",-76.22%
"29","Adrian Steel Maryland","7600 Energy Pkwy","Baltimore","MD","21226",-0.761904776096344,2024-02-01,"222-222@63r-b87-xbk","7600 Energy Pkwy Baltimore MD 21226",-76.19%
"30","H and H Truck Repair","6975 Baltimore Annapolis Blvd","Baltimore","MD","21225",-0.756410241127014,2024-06-01,"222-222@63r-b8h-djv","6975 Baltimore Annapolis Blvd Baltimore MD 21225",-75.64%
"31","BP","6830 Baltimore Annapolis Blvd","Linthicum Heights","MD","21090",-0.735558390617371,2024-05-01,"227-223@63r-b8f-t35","6830 Baltimore Annapolis Blvd Linthicum Heights MD 21090",-73.56%
"32","Marriott Hotels","1743 W Nursery Rd","Linthicum Heights","MD","21090",-0.734343409538269,2024-04-01,"222-223@63r-bjr-mkz","1743 W Nursery Rd Linthicum Heights MD 21090",-73.43%
"33","Olympic News","Bwi Airport","Linthicum Heights","MD","21090",-0.730948686599731,2024-01-01,"zzy-223@63r-bjs-8n5","Bwi Airport Linthicum Heights MD 21090",-73.09%
"34","Salon De Beleza","7871 Ritchie Hwy","Glen Burnie","MD","21061",-0.726027369499207,2024-01-01,"22d-222@63r-52s-wp9","7871 Ritchie Hwy Glen Burnie MD 21061",-72.60%
"35","Colony Motel","107 Georgia Ave NE","Glen Burnie","MD","21060",-0.719696998596191,2024-07-01,"222-222@63r-b8v-r8v","107 Georgia Ave NE Glen Burnie MD 21060",-71.97%
"36","Dayspring Presbyterian Church","116 Marydel Rd","Linthicum","MD","21090",-0.719512224197388,2024-02-01,"222-223@63r-b8m-52k","116 Marydel Rd Linthicum MD 21090",-71.95%
"37","Washington District Advisory Board Of The Church Of The Nazarene","108 Central Ave","Glen Burnie","MD","21061",-0.711538434028625,2024-07-01,"227-223@63r-b8v-qfz","108 Central Ave Glen Burnie MD 21061",-71.15%
"38","Taste International","4314 Curtis Ave","Baltimore","MD","21226",-0.709459483623505,2024-01-01,"229-222@63r-b7w-mx5","4314 Curtis Ave Baltimore MD 21226",-70.95%
"39","Universal Muscle Cars","706 Wedeman Ave","Linthicum Heights","MD","21090",-0.705426335334778,2024-07-01,"222-222@63r-b8k-kfz","706 Wedeman Ave Linthicum Heights MD 21090",-70.54%
"40","Marathon","5701 Ritchie Hwy","Brooklyn Park","MD","21225",-0.702479362487793,2024-02-01,"229-222@63r-b8q-6c5","5701 Ritchie Hwy Brooklyn Park MD 21225",-70.25%
"41","Doll Motel","1300 Crain Hwy S","Glen Burnie","MD","21061",-0.700598776340485,2024-06-01,"222-222@63r-4k9-ct9","1300 Crain Hwy S Glen Burnie MD 21061",-70.06%
"42","Eisners Auto Sales","4215 North Point Rd","Dundalk","MD","21222",-0.695652186870575,2024-04-01,"zzw-222@63r-8fm-r8v","4215 North Point Rd Dundalk MD 21222",-69.57%
"43","Four Sons Automotive","1000 Wise Ave","Dundalk","MD","21222",-0.693548381328583,2024-03-01,"224-222@63r-bqt-dsq","1000 Wise Ave Dundalk MD 21222",-69.35%
"44","Iglesia De Dios De La Profecia","7837 Jamesford Rd","Dundalk","MD","21222",-0.683544278144836,2024-04-01,"23r-222@63r-bqv-d9z","7837 Jamesford Rd Dundalk MD 21222",-68.35%
"45","Five Below","6714 Ritchie Hwy Ste A2","Glen Burnie","MD","21061",-0.683060109615326,2024-03-01,"226-222@63r-b93-kmk","6714 Ritchie Hwy Ste A2 Glen Burnie MD 21061",-68.31%
"46","Gold's Gym","6324 Ritchie Hwy","Glen Burnie","MD","21061",-0.681859612464905,2024-02-01,"223-222@63r-b8h-yn5","6324 Ritchie Hwy Glen Burnie MD 21061",-68.19%
"47","Baymeadows Park Tennis Court","Waterview Ct","Glen Burnie","MD","21060",-0.678571403026581,2024-05-01,"zzz-222@63r-b7r-rtv","Waterview Ct Glen Burnie MD 21060",-67.86%
"48","Fiberglass Unlimited","6608 Fort Smallwood Rd","Curtis Bay","MD","21226",-0.674618303775787,2024-06-01,"222-223@63r-b7p-975","6608 Fort Smallwood Rd Curtis Bay MD 21226",-67.46%
"49","Tate Chrysler Plymouth Jeep Eagle","7535 Ritchie Hwy","Glen Burnie","MD","21061",-0.673913061618805,2024-02-01,"zzw-223@63r-b8v-pqf","7535 Ritchie Hwy Glen Burnie MD 21061",-67.39%
"50","Do or Die Mysteries","625 Greenway Rd SE","Glen Burnie","MD","21061",-0.673728823661804,2024-02-01,"223-223@63r-b8x-cbk","625 Greenway Rd SE Glen Burnie MD 21061",-67.37%
"51","St Helena Conv Store","275 Saint Helena Ave","Dundalk","MD","21222",-0.666666686534882,2024-04-01,"222-222@63r-b9m-k75","275 Saint Helena Ave Dundalk MD 21222",-66.67%
"52","Brooklyn United Methodist Church","401 Pontiac Ave","Brooklyn","MD","21225",-0.666666686534882,2024-06-01,"226-223@63r-b8q-tvz","401 Pontiac Ave Brooklyn MD 21225",-66.67%
"53","Ultimate Import Auto Repair","4701 Belle Grove Rd Ste K","Baltimore","MD","21225",-0.660000026226044,2024-02-01,"zzw-223@63r-b8q-2p9","4701 Belle Grove Rd Ste K Baltimore MD 21225",-66.00%
"54","Jock City Sporting Goods","7700 German Hill Rd","Dundalk","MD","21222",-0.657894730567932,2024-07-01,"223-224@63r-bqs-c5z","7700 German Hill Rd Dundalk MD 21222",-65.79%
"55","Shimp's Auto Service","5619 Belle Grove Rd","Brooklyn","MD","21225",-0.653543293476105,2024-07-01,"222-222@63r-b8q-m8v","5619 Belle Grove Rd Brooklyn MD 21225",-65.35%
"56","City Imports","166 Penrod Ct","Glen Burnie","MD","21061",-0.628205120563507,2024-06-01,"224-222@63r-b8w-mrk","166 Penrod Ct Glen Burnie MD 21061",-62.82%
"57","Greater St John Baptist Church","209 Walnut Ave","Dundalk","MD","21222",-0.625,2024-02-01,"22d-222@63r-b99-qcq","209 Walnut Ave Dundalk MD 21222",-62.50%
"58","Snappy Auto Glass Replacement","215 Thelma Ave","Glen Burnie","MD","21061",-0.623762369155884,2024-01-01,"223-222@63r-b93-249","215 Thelma Ave Glen Burnie MD 21061",-62.38%
"59","Giant Food","7940 Crain Hwy S # 97","Glen Burnie","MD","21061",-0.618712544441223,2024-05-01,"zzw-223@63r-53q-vzz","7940 Crain Hwy S # 97 Glen Burnie MD 21061",-61.87%
"60","Sullivan Park","Dover Rd","Glen Burnie","MD","21060",-0.616822421550751,2024-02-01,"zzz-222@63r-b7r-ht9","Dover Rd Glen Burnie MD 21060",-61.68%
"61","Crown Pizza & Wings","7717 Westfield Rd","Dundalk","MD","21222",-0.615384638309479,2024-05-01,"zzw-223@63r-b9h-gzf","7717 Westfield Rd Dundalk MD 21222",-61.54%
"62","American","5500 Ritchie Hwy","Brooklyn Park","MD","21225",-0.607843160629272,2024-07-01,"zzy-222@63r-b8q-6rk","5500 Ritchie Hwy Brooklyn Park MD 21225",-60.78%
"63","ReWrap ReNue","7686 Quarterfield Rd","Glen Burnie","MD","21061",-0.606557369232178,2024-02-01,"227-223@63r-b8z-yqf","7686 Quarterfield Rd Glen Burnie MD 21061",-60.66%
"64","Just Wright Auto","6309 Fort Smallwood Rd","Curtis Bay","MD","21226",-0.593220353126526,2024-03-01,"223-224@63r-b7p-cwk","6309 Fort Smallwood Rd Curtis Bay MD 21226",-59.32%
"65","Guille's Tire & Auto Care","4904 Ritchie Hwy","Baltimore","MD","21225",-0.580246925354004,2024-02-01,"224-222@63r-b8p-zzz","4904 Ritchie Hwy Baltimore MD 21225",-58.02%
"66","Dundalk Athletic Club","7801 Seaside Rd","Dundalk","MD","21222",-0.574999988079071,2024-04-01,"222-222@63r-b9b-9fz","7801 Seaside Rd Dundalk MD 21222",-57.50%
"67","Sparkman's Auto & Truck Center","7910 Dundalk Ave","Dundalk","MD","21222",-0.564593315124512,2024-02-01,"224-223@63r-b9b-f9f","7910 Dundalk Ave Dundalk MD 21222",-56.46%
"68","Popeyes Louisiana Kitchen","5317 Governor Ritchie Hwy","Brooklyn Park","MD","21225",-0.561872899532318,2024-04-01,"zzy-222@63r-b8q-8vz","5317 Governor Ritchie Hwy Brooklyn Park MD 21225",-56.19%
"69","Moore Performance","7944 Fort Smallwood Rd","Baltimore","MD","21226",-0.5573770403862,2024-04-01,"225-222@63r-b87-tsq","7944 Fort Smallwood Rd Baltimore MD 21226",-55.74%
"70","Seventh Day Adventist Church of Glen Burnie","508 Aquahart Rd","Glen Burnie","MD","21061",-0.5573770403862,2024-06-01,"zzw-222@63r-b92-zmk","508 Aquahart Rd Glen Burnie MD 21061",-55.74%
"71","Royal Farm Stores","308 S Camp Meade Rd","Linthicum Heights","MD","21090",-0.541353404521942,2024-04-01,"zzy-222@63r-b8m-9s5","308 S Camp Meade Rd Linthicum Heights MD 21090",-54.14%
"72","Bnb Transmissions & Automotive","4701 Belle Grove Rd Ste C","Baltimore","MD","21225",-0.541284382343292,2024-03-01,"227-222@63r-b8q-2p9","4701 Belle Grove Rd Ste C Baltimore MD 21225",-54.13%
"73","D&m Automotive","8027 Fort Smallwood Rd","Baltimore","MD","21226",-0.539370059967041,2024-06-01,"228-223@63r-b87-vpv","8027 Fort Smallwood Rd Baltimore MD 21226",-53.94%
"74","Automania Sales and Service","3625 S Hanover St","Baltimore","MD","21225",-0.53600001335144,2024-07-01,"23h-222@63r-bbb-c89","3625 S Hanover St Baltimore MD 21225",-53.60%
"75","MaxxDrive Auto","7166 E Furnace Branch Rd","Glen Burnie","MD","21060",-0.532258093357086,2024-06-01,"224-223@63r-b93-nqz","7166 E Furnace Branch Rd Glen Burnie MD 21060",-53.23%
"76","Glen Burnie Transmissions","7166 Ritchie Hwy","Glen Burnie","MD","21061",-0.531007766723633,2024-07-01,"222-222@63r-b8w-7dv","7166 Ritchie Hwy Glen Burnie MD 21061",-53.10%
"77","Linthicum Market","421 S Camp Meade Rd","Linthicum Heights","MD","21090",-0.520766794681549,2024-02-01,"227-222@63r-b8m-99f","421 S Camp Meade Rd Linthicum Heights MD 21090",-52.08%
"78","Maryland AutoWorx","7721 Baltimore Annapolis Blvd","Glen Burnie","MD","21060",-0.51937985420227,2024-07-01,"226-222@63r-b85-6ff","7721 Baltimore Annapolis Blvd Glen Burnie MD 21060",-51.94%
"79","El Sombrero","529 S Camp Meade Rd","Linthicum Heights","MD","21090",-0.517006814479828,2024-03-01,"225-222@63r-b8m-6zf","529 S Camp Meade Rd Linthicum Heights MD 21090",-51.70%
"80","Hammonds Ferry Citgo","722 N Hammonds Ferry Rd","Linthicum","MD","21090",-0.515151500701904,2024-02-01,"222-223@63r-b8k-kpv","722 N Hammonds Ferry Rd Linthicum MD 21090",-51.52%
"81","Terraza Stained Glass","3403 S Hanover St","Baltimore","MD","21225",-0.512931048870087,2024-07-01,"zzw-222@63r-bb9-v4v","3403 S Hanover St Baltimore MD 21225",-51.29%
"82","VegBox","311 Frankle St","Brooklyn Park","MD","21225",-0.511904776096344,2024-05-01,"224-222@63r-b8q-qxq","311 Frankle St Brooklyn Park MD 21225",-51.19%
"83","Linthicum Seventh Day Adventist Church","901 Andover Rd","Linthicum Heights","MD","21090",-0.507352948188782,2024-05-01,"222-222@63r-bjs-dd9","901 Andover Rd Linthicum Heights MD 21090",-50.74%
"84","Singh Sabha Of Maryland Inc","6701 Brentwood Ave","Dundalk","MD","21222",-0.507042229175568,2024-05-01,"224-222@63r-b9n-5s5","6701 Brentwood Ave Dundalk MD 21222",-50.70%
"85","Gerber Collision","1123 N Point Rd","Dundalk","MD","21222",-0.506329119205475,2024-03-01,"zzw-223@63r-bqs-dsq","1123 N Point Rd Dundalk MD 21222",-50.63%
"86","Dundalk Muslim Association Inc","1510 Lynch Rd","Dundalk","MD","21222",-0.5,2024-04-01,"22h-222@63r-b9j-5j9","1510 Lynch Rd Dundalk MD 21222",-50.00%
"87","Erickson Esthetics","6912 Holabird Ave","Baltimore","MD","21222",-0.490566045045853,2024-02-01,"222-222@63r-b9n-4gk","6912 Holabird Ave Baltimore MD 21222",-49.06%
"88","Food Lion","7069 Baltimore Annapolis Blvd","Glen Burnie","MD","21061",-0.490066230297089,2024-02-01,"22f-222@63r-b8h-nh5","7069 Baltimore Annapolis Blvd Glen Burnie MD 21061",-49.01%
"89","First Baptist Church Of Brooklyn","3801 5th St","Baltimore","MD","21225",-0.488888889551163,2024-02-01,"223-222@63r-bbb-2c5","3801 5th St Baltimore MD 21225",-48.89%
"90","Family Nails","5021 Ritchie Hwy","Brooklyn Park","MD","21225",-0.487804889678955,2024-05-01,"228-222@63r-b8q-249","5021 Ritchie Hwy Brooklyn Park MD 21225",-48.78%
"91","Legacy Wood Product","1205 Crain Hwy N","Glen Burnie","MD","21061",-0.482758611440659,2024-05-01,"222-222@63r-b93-pjv","1205 Crain Hwy N Glen Burnie MD 21061",-48.28%
"92","Village Tattoo","5000A Ritchie Hwy","Brooklyn Park","MD","21225",-0.48031497001648,2024-07-01,"22p-222@63r-b8p-zpv","5000A Ritchie Hwy Brooklyn Park MD 21225",-48.03%
"93","Hot Wok Chinese Restaurant","452 N Camp Meade Rd","Linthicum Heights","MD","21090",-0.474820137023926,2024-06-01,"223-222@63r-b8f-sbk","452 N Camp Meade Rd Linthicum Heights MD 21090",-47.48%
"94","Westin Hotels & Resorts","1110 Old Elkridge Landing Rd","Linthicum Heights","MD","21090",-0.474813431501389,2024-04-01,"zzw-223@63r-bjr-wc5","1110 Old Elkridge Landing Rd Linthicum Heights MD 21090",-47.48%
"95","Macrotech Archery Pro Shop","8043 Fort Smallwood Rd","Curtis Bay","MD","21226",-0.473684221506119,2024-04-01,"224-222@63r-b7q-5j9","8043 Fort Smallwood Rd Curtis Bay MD 21226",-47.37%
"96","Fleetwood Bail Bonds","8041 Fort Smallwood Rd","Curtis Bay","MD","21226",-0.473684221506119,2024-04-01,"224-222@63r-b87-vs5","8041 Fort Smallwood Rd Curtis Bay MD 21226",-47.37%
"97","Linthicum Laundromat","521 S Camp Meade Rd","Linthicum Heights","MD","21090",-0.47321429848671,2024-07-01,"22b-225@63r-b8m-9j9","521 S Camp Meade Rd Linthicum Heights MD 21090",-47.32%
"98","Michael's Bay Marine","2819 North Point Blvd","Dundalk","MD","21222",-0.470039933919907,2024-04-01,"222-222@63r-bqr-zpv","2819 North Point Blvd Dundalk MD 21222",-47.00%
"99","Sunoco","7930 Crain Hwy S","Glen Burnie","MD","21061",-0.468652039766312,2024-03-01,"222-222@63r-53q-vzz","7930 Crain Hwy S Glen Burnie MD 21061",-46.87%
"100","Allstate Brakes & Transmission","4701 Belle Grove Rd Ste C","Brooklyn","MD","21225",-0.465116292238235,2024-04-01,"227-223@63r-b8q-2p9","4701 Belle Grove Rd Ste C Brooklyn MD 21225",-46.51%
"101","Automotive Clarke's","4701 Belle Grove Rd Ste D","Baltimore","MD","21225",-0.465000003576279,2024-06-01,"22k-223@63r-b8q-2p9","4701 Belle Grove Rd Ste D Baltimore MD 21225",-46.50%
"102","Studio 1535 Hair Salon","1535 Merritt Blvd","Dundalk","MD","21222",-0.450549453496933,2024-04-01,"225-222@63r-b9j-6c5","1535 Merritt Blvd Dundalk MD 21222",-45.05%
"103","Crown","2020 Merritt Blvd","Dundalk","MD","21222",-0.448863625526428,2024-01-01,"229-222@63r-b9h-yjv","2020 Merritt Blvd Dundalk MD 21222",-44.89%
"104","Singleton Funeral & Cremation Services P A","1 2nd Ave SW","Glen Burnie","MD","21061",-0.436170220375061,2024-07-01,"222-222@63r-b8v-qs5","1 2nd Ave SW Glen Burnie MD 21061",-43.62%
"105","Bullseye Auto Sales & Service","10 5th Ave SE","Glen Burnie","MD","21061",-0.435779809951782,2024-05-01,"22b-222@63r-b92-t7q","10 5th Ave SE Glen Burnie MD 21061",-43.58%
"106","Brooklyn Auto Body & Paint Supplies","1631 Filbert St","Curtis Bay","MD","21226",-0.419642865657806,2024-01-01,"22c-222@63r-b7w-mzf","1631 Filbert St Curtis Bay MD 21226",-41.96%
"107","Leslie's Swimming Pool Supplies","1211 Merritt Blvd Ste D-4","Dundalk","MD","21222",-0.419354826211929,2024-03-01,"zzw-222@63r-bqs-b8v","1211 Merritt Blvd Ste D-4 Dundalk MD 21222",-41.94%
"108","Arturo's Trattoria","1660 Crain Hwy S","Glen Burnie","MD","21061",-0.419117659330368,2024-07-01,"226-222@63r-b92-5zz","1660 Crain Hwy S Glen Burnie MD 21061",-41.91%
"109","Village Food Market","511 Avondale Rd","Dundalk","MD","21222",-0.416666656732559,2024-04-01,"22c-222@63r-b9d-3nq","511 Avondale Rd Dundalk MD 21222",-41.67%
"110","Chloe Samone The Salon","4 Crain Hwy S","Glen Burnie","MD","21061",-0.415730327367783,2024-02-01,"223-222@63r-b8v-qcq","4 Crain Hwy S Glen Burnie MD 21061",-41.57%
"111","Sherwin-Williams","7950 Crain Hwy S","Glen Burnie","MD","21061",-0.415254235267639,2024-07-01,"22b-222@63r-53q-ty9","7950 Crain Hwy S Glen Burnie MD 21061",-41.53%
"112","Taylor's Welding","3601 2nd St","Baltimore","MD","21225",-0.415094345808029,2024-01-01,"224-222@63r-bbb-ckf","3601 2nd St Baltimore MD 21225",-41.51%
"113","Foundation Building Materials (FBM)","8203 Fischer Rd","Baltimore","MD","21222",-0.412844032049179,2024-02-01,"222-223@63r-bqv-835","8203 Fischer Rd Baltimore MD 21222",-41.28%
"114","Ace Appliance Center","7405 Baltimore Annapolis Blvd Ste 11","Glen Burnie","MD","21061",-0.409090906381607,2024-02-01,"228-222@63r-b8v-jjv","7405 Baltimore Annapolis Blvd Ste 11 Glen Burnie MD 21061",-40.91%
"115","Mobile Glass Medic","8203 Fischer Rd","Dundalk","MD","21222",-0.40804597735405,2024-07-01,"222-224@63r-bqv-835","8203 Fischer Rd Dundalk MD 21222",-40.80%
"116","Baltimore Dundalk Church Of The Nazarene","1626 Lynch Rd","Baltimore","MD","21222",-0.404761910438538,2024-05-01,"zzw-222@63r-b9j-5s5","1626 Lynch Rd Baltimore MD 21222",-40.48%
"117","Threading Brow Bar MD","312 Hospital Dr Ste A","Glen Burnie","MD","21061",-0.402515709400177,2024-02-01,"222-222@63r-52x-kxq","312 Hospital Dr Ste A Glen Burnie MD 21061",-40.25%
"118","First Baptist Church","3807 5th St","Baltimore","MD","21225",-0.400000005960464,2024-03-01,"zzw-222@63r-bbb-2c5","3807 5th St Baltimore MD 21225",-40.00%
"119","Hughes Memorial Presbyterian Church","3010 Sparrows Point Rd","Sparrows Point","MD","21219",-0.400000005960464,2024-06-01,"zzy-222@63r-8f9-qcq","3010 Sparrows Point Rd Sparrows Point MD 21219",-40.00%
"120","Isabel's Latin Market","11 Vernon Ave","Glen Burnie","MD","21061",-0.39759036898613,2024-03-01,"223-222@63r-b93-fvf","11 Vernon Ave Glen Burnie MD 21061",-39.76%
"121","K & R Motors","5619 Belle Grove Rd","Brooklyn","MD","21225",-0.397435903549194,2024-03-01,"zzw-222@63r-b8q-m6k","5619 Belle Grove Rd Brooklyn MD 21225",-39.74%
"122","Carroll Independent Fuel","2100 Merritt Blvd","Dundalk","MD","21222",-0.396551728248596,2024-02-01,"zzw-224@63r-b9b-9mk","2100 Merritt Blvd Dundalk MD 21222",-39.66%
"123","Subway","6720B Ritchie Hwy","Glen Burnie","MD","21061",-0.396039605140686,2024-02-01,"225-223@63r-b93-h89","6720B Ritchie Hwy Glen Burnie MD 21061",-39.60%
"124","Crowning Alternatives","607 S Camp Meade Rd","Linthicum Heights","MD","21090",-0.395604401826859,2024-05-01,"222-223@63r-b8m-6p9","607 S Camp Meade Rd Linthicum Heights MD 21090",-39.56%
"125","Glass America","1123 N Point Rd","Dundalk","MD","21222",-0.386666655540466,2024-02-01,"zzw-222@63r-bqs-dsq","1123 N Point Rd Dundalk MD 21222",-38.67%
"126","Eddie's Pizza & Catering","6721 Chesapeake Center Dr","Glen Burnie","MD","21060",-0.38413879275322,2024-07-01,"222-228@63r-b94-hwk","6721 Chesapeake Center Dr Glen Burnie MD 21060",-38.41%
"127","Devins Deli","1 Ferndale Rd","Glen Burnie","MD","21061",-0.377952754497528,2024-02-01,"227-222@63r-b96-mx5","1 Ferndale Rd Glen Burnie MD 21061",-37.80%
"128","Whay's Auto Service","3549 S Hanover St","Baltimore","MD","21225",-0.372093021869659,2024-04-01,"229-222@63r-bbb-g49","3549 S Hanover St Baltimore MD 21225",-37.21%
"129","Auto Detailers C C","3627 S Hanover St","Brooklyn","MD","21225",-0.372093021869659,2024-02-01,"23m-222@63r-bbb-c89","3627 S Hanover St Brooklyn MD 21225",-37.21%
"130","Target","6717 Ritchie Hwy","Glen Burnie","MD","21061",-0.37115666270256,2024-01-01,"222-222@63r-b93-k4v","6717 Ritchie Hwy Glen Burnie MD 21061",-37.12%
"131","Northpoint Farmers Market","2401 North Point Blvd","Dundalk","MD","21222",-0.370805382728577,2024-06-01,"222-222@63r-bqr-s89","2401 North Point Blvd Dundalk MD 21222",-37.08%
"132","Skateland North Point","1111 North Point Rd","Dundalk","MD","21222",-0.367469877004623,2024-03-01,"zzy-222@63r-bqs-5pv","1111 North Point Rd Dundalk MD 21222",-36.75%
"133","Graceland United Methodist Church Parsonage","6716 Youngstown Ave","Dundalk","MD","21222",-0.365384608507156,2024-07-01,"227-222@63r-brk-qs5","6716 Youngstown Ave Dundalk MD 21222",-36.54%
"134","Dutch Country Chicken","2401 North Point Blvd","Dundalk","MD","21222",-0.364190697669983,2024-07-01,"222-22g@63r-bqr-s89","2401 North Point Blvd Dundalk MD 21222",-36.42%
"135","Atlantic Yacht Documentation","6958 Aviation Blvd Ste A5","Glen Burnie","MD","21061",-0.363636374473572,2024-07-01,"228-222@63r-b8z-c5z","6958 Aviation Blvd Ste A5 Glen Burnie MD 21061",-36.36%
"136","AM Cutz","4028 Belle Grove Rd Ste C","Brooklyn","MD","21225",-0.361702114343643,2024-03-01,"22d-222@63r-b92-qmk","4028 Belle Grove Rd Ste C Brooklyn MD 21225",-36.17%
"137","Arctic Crush Snowballs","2023 Merritt Ave","Dundalk","MD","21222",-0.360000014305115,2024-06-01,"zzy-223@63r-b9h-yjv","2023 Merritt Ave Dundalk MD 21222",-36.00%
"138","TireWala","415 Crain Hwy N","Glen Burnie","MD","21061",-0.3584905564785,2024-07-01,"224-222@63r-b8v-hh5","415 Crain Hwy N Glen Burnie MD 21061",-35.85%
"139","Eagle Motorcycle","7666 Baltimore Annapolis Blvd","Glen Burnie","MD","21060",-0.356321841478348,2024-01-01,"222-224@63r-b8y-2rk","7666 Baltimore Annapolis Blvd Glen Burnie MD 21060",-35.63%
"140","The Westin Baltimore Washington Airport BWI","1110 Old Elkridge Landing Rd","Linthicum Heights","MD","21090",-0.355603456497192,2024-07-01,"zzw-222@63r-bjr-wc5","1110 Old Elkridge Landing Rd Linthicum Heights MD 21090",-35.56%
"141","AA Auto Truck & RV's Repair","514 Crain Hwy N Ste D","Glen Burnie","MD","21061",-0.35121950507164,2024-01-01,"23g-222@63r-b8v-m49","514 Crain Hwy N Ste D Glen Burnie MD 21061",-35.12%
"142","Dave's Boat Trailer Sales","434 Crain Hwy N","Glen Burnie","MD","21061",-0.349999994039536,2024-01-01,"223-222@63r-b8v-ks5","434 Crain Hwy N Glen Burnie MD 21061",-35.00%
"143","VIP Nail Spa","801 Landmark Dr Ste C","Glen Burnie","MD","21061",-0.346534639596939,2024-06-01,"zzw-225@63r-b92-94v","801 Landmark Dr Ste C Glen Burnie MD 21061",-34.65%
"144","Forward Air","899 Airport Park Rd","Glen Burnie","MD","21061",-0.344827592372894,2024-04-01,"222-222@63r-b8z-7nq","899 Airport Park Rd Glen Burnie MD 21061",-34.48%
"145","St Johns Lutheran Church","224 Washburn Ave","Baltimore","MD","21225",-0.341176480054855,2024-05-01,"226-222@63r-b8q-v2k","224 Washburn Ave Baltimore MD 21225",-34.12%
"146","Duke's Barber Salon & Spa","205 Linden Ln","Glen Burnie","MD","21061",-0.338709682226181,2024-05-01,"224-222@63r-b8v-jd9","205 Linden Ln Glen Burnie MD 21061",-33.87%
"147","Kisner's Hair Salon & Barber","6638 Ritchie Hwy","Glen Burnie","MD","21061",-0.338607609272003,2024-07-01,"223-222@63r-b94-ks5","6638 Ritchie Hwy Glen Burnie MD 21061",-33.86%
"148","J & K Automotive","1100 North Point Rd Ste 100","Dundalk","MD","21222",-0.338345855474472,2024-07-01,"zzw-223@63r-bqs-5xq","1100 North Point Rd Ste 100 Dundalk MD 21222",-33.83%
"149","DEK Drain","190 Penrod Ct","Glen Burnie","MD","21061",-0.335483878850937,2024-06-01,"222-222@63r-b8w-mkz","190 Penrod Ct Glen Burnie MD 21061",-33.55%
"150","Tony Garcia's Automotive Repair","3625 S Hanover St","Brooklyn","MD","21225",-0.32631579041481,2024-01-01,"23h-224@63r-bbb-c89","3625 S Hanover St Brooklyn MD 21225",-32.63%
"151","XtraFuels","6971 Baltimore Annapolis Blvd","Brooklyn Park","MD","21225",-0.322580635547638,2024-07-01,"zzw-223@63r-b8h-djv","6971 Baltimore Annapolis Blvd Brooklyn Park MD 21225",-32.26%
"152","P & G Automotive Services","7264 E Furnace Branch Rd","Glen Burnie","MD","21060",-0.322222232818604,2024-03-01,"224-223@63r-b95-bhq","7264 E Furnace Branch Rd Glen Burnie MD 21060",-32.22%
"153","Dell's Barber Shop","7420 E Furnace Branch Rd","Glen Burnie","MD","21060",-0.322033911943436,2024-01-01,"227-222@63r-b95-kfz","7420 E Furnace Branch Rd Glen Burnie MD 21060",-32.20%
"154","Maritime Conference Center","692 Maritime Blvd","Linthicum Heights","MD","21090",-0.319727897644043,2024-02-01,"zzw-223@63r-b8j-s89","692 Maritime Blvd Linthicum Heights MD 21090",-31.97%
"155","Just 4 Kids Fun & Fitness","11 Vernon Ave","Glen Burnie","MD","21061",-0.318471342325211,2024-06-01,"223-223@63r-b93-fvf","11 Vernon Ave Glen Burnie MD 21061",-31.85%
"156","Taco Bell","5501 Ritchie Hwy","Brooklyn","MD","21225",-0.31511253118515,2024-05-01,"222-223@63r-b8q-94v","5501 Ritchie Hwy Brooklyn MD 21225",-31.51%
"157","Captain Harvey's Submarines","3435 Dundalk Ave","Dundalk","MD","21222",-0.31496062874794,2024-02-01,"227-222@63r-b99-f2k","3435 Dundalk Ave Dundalk MD 21222",-31.50%
"158","Cracker Barrel","1520 W Nursery Rd","Linthicum Heights","MD","21090",-0.311111122369766,2024-07-01,"222-222@63r-bjs-575","1520 W Nursery Rd Linthicum Heights MD 21090",-31.11%
"159","Anchor Towing & Roadside","6051 Olson Rd","Brooklyn","MD","21225",-0.310476183891296,2024-07-01,"222-222@63r-b8j-3wk","6051 Olson Rd Brooklyn MD 21225",-31.05%
"160","Junk Cars Baltimore","6051B Olson Rd","Baltimore","MD","21225",-0.310476183891296,2024-07-01,"22d-222@63r-b8j-3wk","6051B Olson Rd Baltimore MD 21225",-31.05%
"161","Slim's pickings","210 Crain Hwy S","Glen Burnie","MD","21061",-0.310000002384186,2024-02-01,"227-223@63r-b92-sqz","210 Crain Hwy S Glen Burnie MD 21061",-31.00%
"162","Anointed Barber Handz","7207 Baltimore Annapolis Blvd","Glen Burnie","MD","21061",-0.308823525905609,2024-06-01,"zzw-227@63r-b96-rrk","7207 Baltimore Annapolis Blvd Glen Burnie MD 21061",-30.88%
"163","All About Bait and Tackle Shop","7403 Baltimore Annapolis Blvd","Glen Burnie","MD","21061",-0.308411210775375,2024-05-01,"226-222@63r-b8v-jjv","7403 Baltimore Annapolis Blvd Glen Burnie MD 21061",-30.84%
"164","Lee Oldsmobile","6901 Ritchie Hwy","Glen Burnie","MD","21061",-0.307692319154739,2024-06-01,"222-22n@63r-b93-s3q","6901 Ritchie Hwy Glen Burnie MD 21061",-30.77%
"165","The Christadelphian Ecclesia Of Glen Burnie Maryland","105 Crain Hwy S","Glen Burnie","MD","21061",-0.307692319154739,2024-04-01,"224-223@63r-b8v-r49","105 Crain Hwy S Glen Burnie MD 21061",-30.77%
"166","Kratom Vapour Shop","6929 Holabird Ave","Dundalk","MD","21222",-0.307692319154739,2024-01-01,"22j-222@63r-b9n-7yv","6929 Holabird Ave Dundalk MD 21222",-30.77%
"167","Bella Mia","8144 Fort Smallwood Rd","Curtis Bay","MD","21226",-0.306532651185989,2024-07-01,"zzw-222@63r-b8b-7bk","8144 Fort Smallwood Rd Curtis Bay MD 21226",-30.65%
"168","Nails Club","1672 Crain Hwy S","Glen Burnie","MD","21061",-0.305263161659241,2024-02-01,"227-222@63r-b92-5zz","1672 Crain Hwy S Glen Burnie MD 21061",-30.53%
"169","Maynards Cafe","3916 S Hanover St","Brooklyn","MD","21225",-0.304964542388916,2024-07-01,"22g-222@63r-b8q-vvf","3916 S Hanover St Brooklyn MD 21225",-30.50%
"170","LiLi Acupressure","404 Crain Hwy S","Glen Burnie","MD","21061",-0.303370773792267,2024-07-01,"224-222@63r-b92-t5f","404 Crain Hwy S Glen Burnie MD 21061",-30.34%
"171","Battle Grove Park","New Battle Grove Rd","Dundalk","MD","21222",-0.301444053649902,2024-03-01,"zzz-222@63r-bqt-hkf","New Battle Grove Rd Dundalk MD 21222",-30.14%
"172","Chesapeake Liquors","6720 Ritchie Hwy","Glen Burnie","MD","21061",-0.300000011920929,2024-04-01,"223-222@63r-b93-h89","6720 Ritchie Hwy Glen Burnie MD 21061",-30.00%
"173","CVS","7845 Wise Ave","Baltimore","MD","21222",-0.298898071050644,2024-04-01,"222-222@63r-b9j-ct9","7845 Wise Ave Baltimore MD 21222",-29.89%
"174","Miller Speed and Performance","512 Crain Hwy N Ste 7","Glen Burnie","MD","21061",-0.297297298908234,2024-03-01,"229-223@63r-b8v-kzz","512 Crain Hwy N Ste 7 Glen Burnie MD 21061",-29.73%
"175","Terra star","780 Elkridge Landing Rd","Linthicum Heights","MD","21090",-0.29441624879837,2024-02-01,"222-224@63r-bjt-dsq","780 Elkridge Landing Rd Linthicum Heights MD 21090",-29.44%
"176","Thompson Gas","3101 Shell Rd","Baltimore","MD","21226",-0.293613702058792,2024-05-01,"222-222@63r-b7x-td9","3101 Shell Rd Baltimore MD 21226",-29.36%
"177","The New Green Room Billiards","2401 North Point Blvd","Dundalk","MD","21222",-0.291506856679916,2024-06-01,"222-22k@63r-bqr-s89","2401 North Point Blvd Dundalk MD 21222",-29.15%
"178","Zibah Braids Gallery","147 Delaware Ave","Glen Burnie","MD","21061",-0.289950579404831,2024-07-01,"22q-222@63r-b8v-nnq","147 Delaware Ave Glen Burnie MD 21061",-29.00%
"179","Subway","529 S Camp Meade Rd","Linthicum","MD","21090",-0.288888901472092,2024-07-01,"225-227@63r-b8m-6zf","529 S Camp Meade Rd Linthicum MD 21090",-28.89%
"180","7-Eleven","7600 Baltimore Annapolis Blvd","Glen Burnie","MD","21060",-0.28571429848671,2024-02-01,"222-223@63r-b8y-4gk","7600 Baltimore Annapolis Blvd Glen Burnie MD 21060",-28.57%
"181","Reedbird Food Mart","200 Reedbird Ave","Baltimore","MD","21225",-0.28571429848671,2024-04-01,"22c-222@63r-bbb-9cq","200 Reedbird Ave Baltimore MD 21225",-28.57%
"182","Glen Burnie United Methodist Church","5 2nd Ave SE","Glen Burnie","MD","21061",-0.284671545028687,2024-06-01,"227-222@63r-b8v-qs5","5 2nd Ave SE Glen Burnie MD 21061",-28.47%
"183","Walter Jay Auto Painting","3826 North Point Blvd","Dundalk","MD","21222",-0.284210532903671,2024-03-01,"222-222@63r-bqv-c5z","3826 North Point Blvd Dundalk MD 21222",-28.42%
"184","Safa's Pizza","38 N Dundalk Ave","Dundalk","MD","21222",-0.283582091331482,2024-04-01,"23f-222@63r-b9m-pgk","38 N Dundalk Ave Dundalk MD 21222",-28.36%
"185","Wheel Repair Gurus Baltimore","220 Thelma Ave","Glen Burnie","MD","21061",-0.282758623361588,2024-06-01,"zzw-223@63r-b93-249","220 Thelma Ave Glen Burnie MD 21061",-28.28%
"186","Lowe's","6650 Ritchie Route 2 Hwy","Glen Burnie","MD","21061",-0.281473338603973,2024-07-01,"zzy-222@63r-b94-kvf","6650 Ritchie Route 2 Hwy Glen Burnie MD 21061",-28.15%
"187","Francis Scott Key Bridge","303 Authority Dr","Dundalk","MD","21222",-0.27894738316536,2024-07-01,"222-222@63r-b9c-mhq","303 Authority Dr Dundalk MD 21222",-27.89%
"188","Tony's Barber Shop","1108 Crain Hwy S","Glen Burnie","MD","21061",-0.277777791023254,2024-04-01,"229-222@63r-b93-249","1108 Crain Hwy S Glen Burnie MD 21061",-27.78%
"189","Elizabeth Jane Spa","7273 Baltimore Annapolis Blvd","Glen Burnie","MD","21061",-0.276923090219498,2024-01-01,"222-222@63r-b96-n89","7273 Baltimore Annapolis Blvd Glen Burnie MD 21061",-27.69%
"190","Bay Line X of Glen Burnie","81 Dover Rd NE Ste A","Glen Burnie","MD","21060",-0.276119410991669,2024-06-01,"zzy-222@63r-b94-f75","81 Dover Rd NE Ste A Glen Burnie MD 21060",-27.61%
"191","Sleep Inn","6055 Belle Grove Rd","Baltimore","MD","21225",-0.27522936463356,2024-02-01,"222-222@63r-b8f-r49","6055 Belle Grove Rd Baltimore MD 21225",-27.52%
"192","Bath & Body Works","7900 Ritchie Hwy","Glen Burnie","MD","21061",-0.27118644118309,2024-04-01,"zzw-228@63r-52s-t9z","7900 Ritchie Hwy Glen Burnie MD 21061",-27.12%
"193","Tabernacle of Deliverance Christian Church","2 Crain Hwy S","Glen Burnie","MD","21061",-0.269841283559799,2024-03-01,"22d-222@63r-b8v-qcq","2 Crain Hwy S Glen Burnie MD 21061",-26.98%
"194","Redeemed Christian Church Of God Lighthouse","913 E Patapsco Ave","Brooklyn","MD","21225",-0.268656730651855,2024-02-01,"22r-224@63r-b7x-3nq","913 E Patapsco Ave Brooklyn MD 21225",-26.87%
"195","Fila USA Inc Fila","7630 Gambrills Cove Rd","Baltimore","MD","21226",-0.268551230430603,2024-03-01,"222-222@63r-b88-7h5","7630 Gambrills Cove Rd Baltimore MD 21226",-26.86%
"196","Sparrows Point Country Club","919 Wise Ave","Baltimore","MD","21222",-0.265417635440826,2024-07-01,"zzw-222@63r-8fk-x5z","919 Wise Ave Baltimore MD 21222",-26.54%
"197","JB's Automotive Repair","7444 E Furnace Branch Rd","Glen Burnie","MD","21060",-0.265306115150452,2024-02-01,"222-222@63r-b8x-vj9","7444 E Furnace Branch Rd Glen Burnie MD 21060",-26.53%
"198","The Esthetic Touch","4 Crain Hwy S","Glen Burnie","MD","21061",-0.265306115150452,2024-03-01,"223-223@63r-b8v-qcq","4 Crain Hwy S Glen Burnie MD 21061",-26.53%
"199","Glen Burnie Ice","7405 Baltimore Annapolis Blvd","Glen Burnie","MD","21061",-0.263157904148102,2024-05-01,"225-223@63r-b8v-jjv","7405 Baltimore Annapolis Blvd Glen Burnie MD 21061",-26.32%
"200","AutoZone","6728 Ritchie Hwy","Glen Burnie","MD","21061",-0.262734591960907,2024-01-01,"zzw-222@63r-b93-g49","6728 Ritchie Hwy Glen Burnie MD 21061",-26.27%
